<?xml version="1.0" encoding="UTF-8"?>
<ndm xmlns:xsi="http://www.w3.org/2001/XMLSchema-instance" xsi:noNamespaceSchemaLocation="https://sanaregistry.org/r/ndmxml_unqualified/ndmxml-2.0.0-master-2.0.xsd">
<omm id="CCSDS_OMM_VERS" version="2.0">
<header><CREATION_DATE/><ORIGINATOR/></header><body><segment><metadata><OBJECT_NAME>ORBCOMM FM33</OBJECT_NAME><OBJECT_ID>1999-065D</OBJECT_ID><CENTER_NAME>EARTH</CENTER_NAME><REF_FRAME>TEME</REF_FRAME><TIME_SYSTEM>UTC</TIME_SYSTEM><MEAN_ELEMENT_THEORY>SGP4</MEAN_ELEMENT_THEORY></metadata><data><meanElements><EPOCH>2024-05-22T15:20:56.990400</EPOCH><MEAN_MOTION>14.37758862</MEAN_MOTION><ECCENTRICITY>.0008631</ECCENTRICITY><INCLINATION>45.0295</INCLINATION><RA_OF_ASC_NODE>52.5261</RA_OF_ASC_NODE><ARG_OF_PERICENTER>262.5232</ARG_OF_PERICENTER><MEAN_ANOMALY>171.2496</MEAN_ANOMALY></meanElements><tleParameters><EPHEMERIS_TYPE>0</EPHEMERIS_TYPE><CLASSIFICATION_TYPE>U</CLASSIFICATION_TYPE><NORAD_CAT_ID>25983</NORAD_CAT_ID><ELEMENT_SET_NO>999</ELEMENT_SET_NO><REV_AT_EPOCH>27981</REV_AT_EPOCH><BSTAR>.85382E-3</BSTAR><MEAN_MOTION_DOT>.2453E-4</MEAN_MOTION_DOT><MEAN_MOTION_DDOT>0</MEAN_MOTION_DDOT></tleParameters></data></segment></body></omm>
<omm id="CCSDS_OMM_VERS" version="2.0">
<header><CREATION_DATE/><ORIGINATOR/></header><body><segment><metadata><OBJECT_NAME>ORBCOMM FM36</OBJECT_NAME><OBJECT_ID>1999-065E</OBJECT_ID><CENTER_NAME>EARTH</CENTER_NAME><REF_FRAME>TEME</REF_FRAME><TIME_SYSTEM>UTC</TIME_SYSTEM><MEAN_ELEMENT_THEORY>SGP4</MEAN_ELEMENT_THEORY></metadata><data><meanElements><EPOCH>2024-05-22T23:03:55.991808</EPOCH><MEAN_MOTION>14.35647203</MEAN_MOTION><ECCENTRICITY>.0001632</ECCENTRICITY><INCLINATION>45.0375</INCLINATION><RA_OF_ASC_NODE>136.7171</RA_OF_ASC_NODE><ARG_OF_PERICENTER>164.6063</ARG_OF_PERICENTER><MEAN_ANOMALY>195.4834</MEAN_ANOMALY></meanElements><tleParameters><EPHEMERIS_TYPE>0</EPHEMERIS_TYPE><CLASSIFICATION_TYPE>U</CLASSIFICATION_TYPE><NORAD_CAT_ID>25984</NORAD_CAT_ID><ELEMENT_SET_NO>999</ELEMENT_SET_NO><REV_AT_EPOCH>27888</REV_AT_EPOCH><BSTAR>.89855E-3</BSTAR><MEAN_MOTION_DOT>.2475E-4</MEAN_MOTION_DOT><MEAN_MOTION_DDOT>0</MEAN_MOTION_DDOT></tleParameters></data></segment></body></omm>
<omm id="CCSDS_OMM_VERS" version="2.0">
<header><CREATION_DATE/><ORIGINATOR/></header><body><segment><metadata><OBJECT_NAME>ORBCOMM FM35</OBJECT_NAME><OBJECT_ID>1999-065F</OBJECT_ID><CENTER_NAME>EARTH</CENTER_NAME><REF_FRAME>TEME</REF_FRAME><TIME_SYSTEM>UTC</TIME_SYSTEM><MEAN_ELEMENT_THEORY>SGP4</MEAN_ELEMENT_THEORY></metadata><data><meanElements><EPOCH>2024-05-23T10:11:05.238816</EPOCH><MEAN_MOTION>14.35212949</MEAN_MOTION><ECCENTRICITY>.0004745</ECCENTRICITY><INCLINATION>45.0376</INCLINATION><RA_OF_ASC_NODE>137.2214</RA_OF_ASC_NODE><ARG_OF_PERICENTER>264.5516</ARG_OF_PERICENTER><MEAN_ANOMALY>95.4790</MEAN_ANOMALY></meanElements><tleParameters><EPHEMERIS_TYPE>0</EPHEMERIS_TYPE><CLASSIFICATION_TYPE>U</CLASSIFICATION_TYPE><NORAD_CAT_ID>25985</NORAD_CAT_ID><ELEMENT_SET_NO>999</ELEMENT_SET_NO><REV_AT_EPOCH>27894</REV_AT_EPOCH><BSTAR>.66376E-3</BSTAR><MEAN_MOTION_DOT>.1775E-4</MEAN_MOTION_DOT><MEAN_MOTION_DDOT>0</MEAN_MOTION_DDOT></tleParameters></data></segment></body></omm>
<omm id="CCSDS_OMM_VERS" version="2.0">
<header><CREATION_DATE/><ORIGINATOR/></header><body><segment><metadata><OBJECT_NAME>ORBCOMM FM34</OBJECT_NAME><OBJECT_ID>1999-065G</OBJECT_ID><CENTER_NAME>EARTH</CENTER_NAME><REF_FRAME>TEME</REF_FRAME><TIME_SYSTEM>UTC</TIME_SYSTEM><MEAN_ELEMENT_THEORY>SGP4</MEAN_ELEMENT_THEORY></metadata><data><meanElements><EPOCH>2024-05-23T01:07:44.107392</EPOCH><MEAN_MOTION>14.35176697</MEAN_MOTION><ECCENTRICITY>.0003578</ECCENTRICITY><INCLINATION>45.0370</INCLINATION><RA_OF_ASC_NODE>139.5387</RA_OF_ASC_NODE><ARG_OF_PERICENTER>220.6193</ARG_OF_PERICENTER><MEAN_ANOMALY>139.4388</MEAN_ANOMALY></meanElements><tleParameters><EPHEMERIS_TYPE>0</EPHEMERIS_TYPE><CLASSIFICATION_TYPE>U</CLASSIFICATION_TYPE><NORAD_CAT_ID>25986</NORAD_CAT_ID><ELEMENT_SET_NO>999</ELEMENT_SET_NO><REV_AT_EPOCH>27885</REV_AT_EPOCH><BSTAR>.65668E-3</BSTAR><MEAN_MOTION_DOT>.1753E-4</MEAN_MOTION_DOT><MEAN_MOTION_DDOT>0</MEAN_MOTION_DDOT></tleParameters></data></segment></body></omm>
<omm id="CCSDS_OMM_VERS" version="2.0">
<header><CREATION_DATE/><ORIGINATOR/></header><body><segment><metadata><OBJECT_NAME>ORBCOMM FM38</OBJECT_NAME><OBJECT_ID>2008-031A</OBJECT_ID><CENTER_NAME>EARTH</CENTER_NAME><REF_FRAME>TEME</REF_FRAME><TIME_SYSTEM>UTC</TIME_SYSTEM><MEAN_ELEMENT_THEORY>SGP4</MEAN_ELEMENT_THEORY></metadata><data><meanElements><EPOCH>2024-05-22T17:43:34.735872</EPOCH><MEAN_MOTION>14.77655157</MEAN_MOTION><ECCENTRICITY>.0005618</ECCENTRICITY><INCLINATION>48.4418</INCLINATION><RA_OF_ASC_NODE>10.8419</RA_OF_ASC_NODE><ARG_OF_PERICENTER>171.7319</ARG_OF_PERICENTER><MEAN_ANOMALY>188.3689</MEAN_ANOMALY></meanElements><tleParameters><EPHEMERIS_TYPE>0</EPHEMERIS_TYPE><CLASSIFICATION_TYPE>U</CLASSIFICATION_TYPE><NORAD_CAT_ID>33060</NORAD_CAT_ID><ELEMENT_SET_NO>999</ELEMENT_SET_NO><REV_AT_EPOCH>85693</REV_AT_EPOCH><BSTAR>.51999E-3</BSTAR><MEAN_MOTION_DOT>.3555E-4</MEAN_MOTION_DOT><MEAN_MOTION_DDOT>0</MEAN_MOTION_DDOT></tleParameters></data></segment></body></omm>
<omm id="CCSDS_OMM_VERS" version="2.0">
<header><CREATION_DATE/><ORIGINATOR/></header><body><segment><metadata><OBJECT_NAME>ORBCOMM FM41</OBJECT_NAME><OBJECT_ID>2008-031B</OBJECT_ID><CENTER_NAME>EARTH</CENTER_NAME><REF_FRAME>TEME</REF_FRAME><TIME_SYSTEM>UTC</TIME_SYSTEM><MEAN_ELEMENT_THEORY>SGP4</MEAN_ELEMENT_THEORY></metadata><data><meanElements><EPOCH>2024-05-22T19:24:53.479584</EPOCH><MEAN_MOTION>14.77381032</MEAN_MOTION><ECCENTRICITY>.0004657</ECCENTRICITY><INCLINATION>48.4451</INCLINATION><RA_OF_ASC_NODE>17.1584</RA_OF_ASC_NODE><ARG_OF_PERICENTER>157.6425</ARG_OF_PERICENTER><MEAN_ANOMALY>321.8003</MEAN_ANOMALY></meanElements><tleParameters><EPHEMERIS_TYPE>0</EPHEMERIS_TYPE><CLASSIFICATION_TYPE>U</CLASSIFICATION_TYPE><NORAD_CAT_ID>33061</NORAD_CAT_ID><ELEMENT_SET_NO>999</ELEMENT_SET_NO><REV_AT_EPOCH>85688</REV_AT_EPOCH><BSTAR>.49927E-3</BSTAR><MEAN_MOTION_DOT>.3382E-4</MEAN_MOTION_DOT><MEAN_MOTION_DDOT>0</MEAN_MOTION_DDOT></tleParameters></data></segment></body></omm>
<omm id="CCSDS_OMM_VERS" version="2.0">
<header><CREATION_DATE/><ORIGINATOR/></header><body><segment><metadata><OBJECT_NAME>ORBCOMM FM29</OBJECT_NAME><OBJECT_ID>2008-031C</OBJECT_ID><CENTER_NAME>EARTH</CENTER_NAME><REF_FRAME>TEME</REF_FRAME><TIME_SYSTEM>UTC</TIME_SYSTEM><MEAN_ELEMENT_THEORY>SGP4</MEAN_ELEMENT_THEORY></metadata><data><meanElements><EPOCH>2024-05-23T01:47:34.797984</EPOCH><MEAN_MOTION>14.77319814</MEAN_MOTION><ECCENTRICITY>.0006433</ECCENTRICITY><INCLINATION>48.4409</INCLINATION><RA_OF_ASC_NODE>23.9357</RA_OF_ASC_NODE><ARG_OF_PERICENTER>155.2033</ARG_OF_PERICENTER><MEAN_ANOMALY>357.5743</MEAN_ANOMALY></meanElements><tleParameters><EPHEMERIS_TYPE>0</EPHEMERIS_TYPE><CLASSIFICATION_TYPE>U</CLASSIFICATION_TYPE><NORAD_CAT_ID>33062</NORAD_CAT_ID><ELEMENT_SET_NO>999</ELEMENT_SET_NO><REV_AT_EPOCH>85678</REV_AT_EPOCH><BSTAR>.5128E-3</BSTAR><MEAN_MOTION_DOT>.3474E-4</MEAN_MOTION_DOT><MEAN_MOTION_DDOT>0</MEAN_MOTION_DDOT></tleParameters></data></segment></body></omm>
<omm id="CCSDS_OMM_VERS" version="2.0">
<header><CREATION_DATE/><ORIGINATOR/></header><body><segment><metadata><OBJECT_NAME>ORBCOMM FM39</OBJECT_NAME><OBJECT_ID>2008-031D</OBJECT_ID><CENTER_NAME>EARTH</CENTER_NAME><REF_FRAME>TEME</REF_FRAME><TIME_SYSTEM>UTC</TIME_SYSTEM><MEAN_ELEMENT_THEORY>SGP4</MEAN_ELEMENT_THEORY></metadata><data><meanElements><EPOCH>2024-05-22T14:43:57.596448</EPOCH><MEAN_MOTION>14.76305282</MEAN_MOTION><ECCENTRICITY>.0007154</ECCENTRICITY><INCLINATION>48.4418</INCLINATION><RA_OF_ASC_NODE>46.7254</RA_OF_ASC_NODE><ARG_OF_PERICENTER>126.7257</ARG_OF_PERICENTER><MEAN_ANOMALY>233.4315</MEAN_ANOMALY></meanElements><tleParameters><EPHEMERIS_TYPE>0</EPHEMERIS_TYPE><CLASSIFICATION_TYPE>U</CLASSIFICATION_TYPE><NORAD_CAT_ID>33063</NORAD_CAT_ID><ELEMENT_SET_NO>999</ELEMENT_SET_NO><REV_AT_EPOCH>85602</REV_AT_EPOCH><BSTAR>.5067E-3</BSTAR><MEAN_MOTION_DOT>.3347E-4</MEAN_MOTION_DOT><MEAN_MOTION_DDOT>0</MEAN_MOTION_DDOT></tleParameters></data></segment></body></omm>

</ndm>
