ORBCOMM FM33            
1 25983U 99065D   24143.63954850  .00002453  00000+0  85382-3 0  9992
2 25983  45.0295  52.5261 0008631 262.5232 171.2496 14.37758862279813
ORBCOMM FM36            
1 25984U 99065E   24143.96106472  .00002475  00000+0  89855-3 0  9991
2 25984  45.0375 136.7171 0001632 164.6063 195.4834 14.35647203278880
ORBCOMM FM35            
1 25985U 99065F   24144.42436619  .00001775  00000+0  66376-3 0  9998
2 25985  45.0376 137.2214 0004745 264.5516  95.4790 14.35212949278949
ORBCOMM FM34            
1 25986U 99065G   24144.04703828  .00001753  00000+0  65668-3 0  9995
2 25986  45.0370 139.5387 0003578 220.6193 139.4388 14.35176697278858
ORBCOMM FM38            
1 33060U 08031A   24143.73859648  .00003555  00000+0  51999-3 0  9991
2 33060  48.4418  10.8419 0005618 171.7319 188.3689 14.77655157856937
ORBCOMM FM41            
1 33061U 08031B   24143.80895231  .00003382  00000+0  49927-3 0  9994
2 33061  48.4451  17.1584 0004657 157.6425 321.8003 14.77381032856887
ORBCOMM FM29            
1 33062U 08031C   24144.07470831  .00003474  00000+0  51280-3 0  9997
2 33062  48.4409  23.9357 0006433 155.2033 357.5743 14.77319814856782
ORBCOMM FM39            
1 33063U 08031D   24143.61386107  .00003347  00000+0  50670-3 0  9990
2 33063  48.4418  46.7254 0007154 126.7257 233.4315 14.76305282856021
